[{"OBJECT_NAME":"OBJECT M","OBJECT_ID":"2025-313M","EPOCH":"2026-03-09T22:20:16.857024","MEAN_MOTION":15.2204252,"ECCENTRICITY":0.00144876,"INCLINATION":97.404,"RA_OF_ASC_NODE":145.2434,"ARG_OF_PERICENTER":355.7069,"MEAN_ANOMALY":4.404,"EPHEMERIS_TYPE":0,"CLASSIFICATION_TYPE":"U","NORAD_CAT_ID":67259,"ELEMENT_SET_NO":999,"REV_AT_EPOCH":1085,"BSTAR":0.00067362999,"MEAN_MOTION_DOT":0.00015392,"MEAN_MOTION_DDOT":0},{"OBJECT_NAME":"SITRO-AIS-61","OBJECT_ID":"2025-313BB","EPOCH":"2026-03-09T22:24:00.043776","MEAN_MOTION":15.23202528,"ECCENTRICITY":0.0008213,"INCLINATION":97.4015,"RA_OF_ASC_NODE":145.3615,"ARG_OF_PERICENTER":357.8269,"MEAN_ANOMALY":2.2931,"EPHEMERIS_TYPE":0,"CLASSIFICATION_TYPE":"U","NORAD_CAT_ID":67297,"ELEMENT_SET_NO":999,"REV_AT_EPOCH":1086,"BSTAR":0.0005465043,"MEAN_MOTION_DOT":0.0001288,"MEAN_MOTION_DDOT":0}]
